NORAD_CAT_ID,OBJECT_NAME,OBJECT_TYPE,EPOCH,MEAN_MOTION,ECCENTRICITY,INCLINATION,RA_OF_ASC_NODE,ARG_OF_PERICENTER,MEAN_ANOMALY,BSTAR,MEAN_MOTION_DOT,MEAN_MOTION_DDOT,TLE_LINE0,TLE_LINE1,TLE_LINE2,SEMIMAJOR_AXIS,PERIOD,APOGEE,PERIGEE,DECAYED
53743.0,STARLINK-4645,PAYLOAD,2023-03-04 12:35:22,15.08844175,0.0001233,53.2173,167.5303,76.3113,283.8016,0.0016254,0.00025678,0.0,0 STARLINK-4645,1 53743U 22107AV  23063.52456067  .00025678  00000-0  16254-2 0  9991,2 53743  53.2173 167.5303 0001233  76.3113 283.8016 15.08844175 27572,6917.868,95.437,540.586,538.88,0.0
53743.0,STARLINK-4645,PAYLOAD,2023-03-04 17:21:31,15.08864451,0.000112,53.2172,166.6392,73.6871,286.4245,0.0034377,0.00054886,0.0,0 STARLINK-4645,1 53743U 22107AV  23063.72328000  .00054886  00000-0  34377-2 0  9997,2 53743  53.2172 166.6392 0001120  73.6871 286.4245 15.08864451 27601,6917.806,95.436,540.445,538.896,0.0
53743.0,STARLINK-4645,PAYLOAD,2023-03-04 23:43:04,15.08833704,0.0001057,53.218,165.4511,107.6446,252.4662,0.00039721,6.038e-05,0.0,0 STARLINK-4645,1 53743U 22107AV  23063.98824439  .00006038  00000-0  39721-3 0  9997,2 53743  53.2180 165.4511 0001057 107.6446 252.4662 15.08833704 27642,6917.9,95.438,540.496,539.033,0.0
53743.0,STARLINK-4645,PAYLOAD,2023-03-06 05:55:23,15.08872569,0.0001004,53.2178,159.8023,99.9189,260.1916,0.001788,0.00028308,0.0,0 STARLINK-4645,1 53743U 22107AV  23065.24680533  .00028308  00000-0  17880-2 0  9998,2 53743  53.2178 159.8023 0001004  99.9189 260.1916 15.08872569 27834,6917.781,95.435,540.34,538.951,0.0
53743.0,STARLINK-4645,PAYLOAD,2023-03-06 18:38:27,15.08920266,9.15e-05,53.2163,157.4231,93.2369,266.8727,0.0022094,0.00035128,0.0,0 STARLINK-4645,1 53743U 22107AV  23065.77670317  .00035128  00000-0  22094-2 0  9996,2 53743  53.2163 157.4231 0000915  93.2369 266.8727 15.08920266 27910,6917.635,95.432,540.133,538.867,0.0
53743.0,STARLINK-4645,PAYLOAD,2023-03-07 05:46:10,15.08830251,0.0001434,53.2164,155.3414,98.2893,261.8262,-0.00056127,-9.207e-05,0.0,0 STARLINK-4645,1 53743U 22107AV  23066.24039745 -.00009207  00000-0 -56127-3 0  9999,2 53743  53.2164 155.3414 0001434  98.2893 261.8262 15.08830251 27985,6917.91,95.438,540.767,538.783,0.0
53743.0,STARLINK-4645,PAYLOAD,2023-03-07 12:07:43,15.08846999,0.0001492,53.2164,154.1523,97.0846,263.0316,0.0025475,0.00040497,0.0,0 STARLINK-4645,1 53743U 22107AV  23066.50536117  .00040497  00000-0  25475-2 0  9998,2 53743  53.2164 154.1523 0001492  97.0846 263.0316 15.08846999 28028,6917.859,95.437,540.756,538.692,0.0
53743.0,STARLINK-4645,PAYLOAD,2023-03-07 16:53:52,15.0886696,0.000168,53.2164,153.2601,95.234,264.8844,0.0040067,0.00064107,0.0,0 STARLINK-4645,1 53743U 22107AV  23066.70408171  .00064107  00000-0  40067-2 0  9996,2 53743  53.2164 153.2601 0001680  95.2340 264.8844 15.08866960 28837,6917.798,95.436,540.825,538.501,0.0
53743.0,STARLINK-4645,PAYLOAD,2023-03-08 02:26:12,15.08817853,0.0001925,53.2165,151.4771,95.1339,264.9873,0.0033609,0.00053575,0.0,0 STARLINK-4645,1 53743U 22107AV  23067.10153240  .00053575  00000-0  33609-2 0  9996,2 53743  53.2165 151.4771 0001925  95.1339 264.9873 15.08817853 28116,6917.948,95.439,541.145,538.481,0.0
53743.0,STARLINK-4645,PAYLOAD,2023-03-08 19:55:27,15.08841318,0.0002371,53.2165,148.2056,66.1534,293.9706,0.0025285,0.00040185,0.0,0 STARLINK-4645,1 53743U 22107AV  23067.83017817  .00040185  00000-0  25285-2 0  9999,2 53743  53.2165 148.2056 0002371  66.1534 293.9706 15.08841318 28229,6917.876,95.437,541.382,538.101,0.0
53743.0,STARLINK-4645,PAYLOAD,2023-03-09 19:46:13,15.08841313,0.0002547,53.2165,143.7447,73.356,286.7712,0.0011921,0.00018736,0.0,0 STARLINK-4645,1 53743U 22107AV  23068.82376942  .00018736  00000-0  11921-2 0  9995,2 53743  53.2165 143.7447 0002547  73.3560 286.7712 15.08841313 29152,6917.876,95.437,541.503,537.979,0.0
53743.0,STARLINK-4645,PAYLOAD,2023-03-10 05:18:32,15.08840027,0.0001561,53.2164,141.9607,106.3913,253.7251,0.0028845,0.00045918,0.0,0 STARLINK-4645,1 53743U 22107AV  23069.22120502  .00045918  00000-0  28845-2 0  9994,2 53743  53.2164 141.9607 0001561 106.3913 253.7251 15.08840027 28436,6917.88,95.438,540.825,538.665,0.0
53743.0,STARLINK-4645,PAYLOAD,2023-03-10 19:37:00,15.08816352,0.0001204,53.2161,139.2841,66.37,293.7419,-0.0010726,-0.00017306,0.0,0 STARLINK-4645,1 53743U 22107AV  23069.81736238 -.00017306  00000-0 -10726-2 0  9999,2 53743  53.2161 139.2841 0001204  66.3700 293.7419 15.08816352 28520,6917.953,95.439,540.651,538.985,0.0
53743.0,STARLINK-4645,PAYLOAD,2023-03-10 21:12:23,15.0880832,0.0001094,53.216,138.987,73.6115,286.4997,-2.2737e-05,-6.49e-06,0.0,0 STARLINK-4645,1 53743U 22107AV  23069.88360330 -.00000649  00000-0 -22737-4 0  9991,2 53743  53.2160 138.9870 0001094  73.6115 286.4997 15.08808320 29319,6917.977,95.44,540.599,539.085,0.0
53743.0,STARLINK-4645,PAYLOAD,2023-03-11 08:20:06,15.08808244,0.0001195,53.2158,136.9054,68.2169,291.895,0.0032986,0.00052555,0.0,0 STARLINK-4645,1 53743U 22107AV  23070.34729676  .00052555  00000-0  32986-2 0  9992,2 53743  53.2158 136.9054 0001195  68.2169 291.8950 15.08808244 28604,6917.977,95.44,540.669,539.016,0.0
53743.0,STARLINK-4645,PAYLOAD,2023-03-11 13:06:16,15.08824453,0.0001183,53.2156,136.013,68.6665,291.4453,0.0027218,0.00043277,0.0,0 STARLINK-4645,1 53743U 22107AV  23070.54601972  .00043277  00000-0  27218-2 0  9995,2 53743  53.2156 136.0130 0001183  68.6665 291.4453 15.08824453 29414,6917.928,95.439,540.611,538.975,0.0
53743.0,STARLINK-4645,PAYLOAD,2023-03-11 19:27:48,15.08829431,0.0001434,53.2157,134.8239,64.319,295.795,0.0022803,0.00036179,0.0,0 STARLINK-4645,1 53743U 22107AV  23070.81098373  .00036179  00000-0  22803-2 0  9998,2 53743  53.2157 134.8239 0001434  64.3190 295.7950 15.08829431 28673,6917.913,95.438,540.77,538.786,0.0
53743.0,STARLINK-4645,PAYLOAD,2023-03-12 06:35:30,15.08892074,0.0001131,53.2153,132.7423,71.4691,288.6424,0.0035659,0.00057004,0.0,0 STARLINK-4645,1 53743U 22107AV  23071.27465393  .00057004  00000-0  35659-2 0  9992,2 53743  53.2153 132.7423 0001131  71.4691 288.6424 15.08892074 28748,6917.721,95.434,540.369,538.804,0.0
53743.0,STARLINK-4645,PAYLOAD,2023-03-12 12:57:01,15.08913855,0.0001138,53.2153,131.5525,76.3739,283.7379,0.0031455,0.00050231,0.0,0 STARLINK-4645,1 53743U 22107AV  23071.53960317  .00050231  00000-0  31455-2 0  9992,2 53743  53.2153 131.5525 0001138  76.3739 283.7379 15.08913855 29569,6917.655,95.433,540.307,538.732,0.0
53743.0,STARLINK-4645,PAYLOAD,2023-03-12 16:07:47,15.08925878,0.0001166,53.2153,130.9578,76.1023,284.0099,0.0029929,0.0004778,0.0,0 STARLINK-4645,1 53743U 22107AV  23071.67207637  .00047780  00000-0  29929-2 0  9994,2 53743  53.2153 130.9578 0001166  76.1023 284.0099 15.08925878 28802,6917.618,95.432,540.29,538.676,0.0
53743.0,STARLINK-4645,PAYLOAD,2023-03-13 04:50:53,15.08833122,0.0001375,53.2152,128.5787,94.6681,265.4469,-0.00046856,-7.736e-05,0.0,0 STARLINK-4645,1 53743U 22107AV  23072.20200651 -.00007736  00000-0 -46856-3 0  9991,2 53743  53.2152 128.5787 0001375  94.6681 265.4469 15.08833122 28885,6917.901,95.438,540.718,538.815,0.0
53743.0,STARLINK-4645,PAYLOAD,2023-03-13 14:23:12,15.08838748,0.0001469,53.2153,126.7947,96.4089,263.7071,0.0018259,0.0002889,0.0,0 STARLINK-4645,1 53743U 22107AV  23072.59945201  .00028890  00000-0  18259-2 0  9997,2 53743  53.2153 126.7947 0001469  96.4089 263.7071 15.08838748 29723,6917.884,95.438,540.765,538.733,0.0
53743.0,STARLINK-4645,PAYLOAD,2023-03-13 15:58:35,15.08842478,0.0001502,53.2152,126.4973,96.1966,263.9197,0.0019023,0.00030119,0.0,0 STARLINK-4645,1 53743U 22107AV  23072.66569210  .00030119  00000-0  19023-2 0  9994,2 53743  53.2152 126.4973 0001502  96.1966 263.9197 15.08842478 28957,6917.873,95.437,540.777,538.699,0.0
53743.0,STARLINK-4645,PAYLOAD,2023-03-14 03:06:18,15.08827993,0.0001627,53.2154,124.416,96.711,263.4068,0.00099216,0.00015532,0.0,0 STARLINK-4645,1 53743U 22107AV  23073.12938210  .00015532  00000-0  99216-3 0  9991,2 53743  53.2154 124.4160 0001627  96.7110 263.4068 15.08827993 29026,6917.917,95.438,540.908,538.657,0.0
53743.0,STARLINK-4645,PAYLOAD,2023-03-14 11:03:14,15.0884234,0.0001536,53.2153,122.9292,87.0156,273.1012,0.0018599,0.00029438,0.0,0 STARLINK-4645,1 53743U 22107AV  23073.46058429  .00029438  00000-0  18599-2 0  9997,2 53743  53.2153 122.9292 0001536  87.0156 273.1012 15.08842340 29857,6917.873,95.437,540.801,538.676,0.0
53743.0,STARLINK-4645,PAYLOAD,2023-03-14 20:35:33,15.08856494,0.000165,53.2155,121.1453,88.6888,271.4293,0.0016806,0.00026572,0.0,0 STARLINK-4645,1 53743U 22107AV  23073.85802329  .00026572  00000-0  16806-2 0  9991,2 53743  53.2155 121.1453 0001650  88.6888 271.4293 15.08856494 29919,6917.83,95.437,540.836,538.554,0.0
53743.0,STARLINK-4645,PAYLOAD,2023-03-15 12:29:23,15.08896449,0.0001759,53.2159,118.1714,91.9979,268.1215,0.0020654,0.00032787,0.0,0 STARLINK-4645,1 53743U 22107AV  23074.52040790  .00032787  00000-0  20654-2 0  9993,2 53743  53.2159 118.1714 0001759  91.9979 268.1215 15.08896449 29233,6917.708,95.434,540.79,538.356,0.0
53743.0,STARLINK-4645,PAYLOAD,2023-03-15 20:26:19,15.08848646,0.0001868,53.2161,116.684,90.4688,269.6518,8.5099e-05,1.067e-05,0.0,0 STARLINK-4645,1 53743U 22107AV  23074.85161317  .00001067  00000-0  85099-4 0  9991,2 53743  53.2161 116.6840 0001868  90.4688 269.6518 15.08848646 29284,6917.854,95.437,541.011,538.427,0.0
53743.0,STARLINK-4645,PAYLOAD,2023-03-16 09:09:24,15.08839651,0.000141,53.2162,114.3053,106.0583,254.0564,0.0011812,0.00018561,0.0,0 STARLINK-4645,1 53743U 22107AV  23075.38153389  .00018561  00000-0  11812-2 0  9997,2 53743  53.2162 114.3053 0001410 106.0583 254.0564 15.08839651 30149,6917.881,95.438,540.722,538.771,0.0
53743.0,STARLINK-4645,PAYLOAD,2023-03-16 13:55:33,15.08840522,0.0001349,53.2167,113.4125,108.9296,251.1843,0.00093459,0.00014617,0.0,0 STARLINK-4645,1 53743U 22107AV  23075.58025362  .00014617  00000-0  93459-3 0  9994,2 53743  53.2167 113.4125 0001349 108.9296 251.1843 15.08840522 29399,6917.879,95.438,540.677,538.811,0.0
